CCSDS_OMM_VERS = 2.0
CREATION_DATE  = 
ORIGINATOR     = 

OBJECT_NAME    = SL-3 R/B
OBJECT_ID      = 1982-079B
CENTER_NAME    = EARTH
REF_FRAME      = TEME
TIME_SYSTEM    = UTC
MEAN_ELEMENT_THEORY = SGP/SGP4

EPOCH          = 2026-02-01T10:28:16.941216
MEAN_MOTION    = 15.24275923
ECCENTRICITY   = .0024252
INCLINATION    = 81.1437
RA_OF_ASC_NODE = 235.8719
ARG_OF_PERICENTER = 290.0273
MEAN_ANOMALY   = 69.8348

EPHEMERIS_TYPE = 0
CLASSIFICATION_TYPE = U
NORAD_CAT_ID   = 13403
ELEMENT_SET_NO = 999
REV_AT_EPOCH   = 37217
BSTAR          = .20843E-3
MEAN_MOTION_DOT = .5156E-4
MEAN_MOTION_DDOT = 0

CCSDS_OMM_VERS = 2.0
CREATION_DATE  = 
ORIGINATOR     = 

OBJECT_NAME    = SL-14 R/B
OBJECT_ID      = 1982-092B
CENTER_NAME    = EARTH
REF_FRAME      = TEME
TIME_SYSTEM    = UTC
MEAN_ELEMENT_THEORY = SGP/SGP4

EPOCH          = 2026-02-01T12:01:15.658752
MEAN_MOTION    = 14.86622859
ECCENTRICITY   = .0021692
INCLINATION    = 82.5694
RA_OF_ASC_NODE = 175.2373
ARG_OF_PERICENTER = 63.3705
MEAN_ANOMALY   = 4.8656

EPHEMERIS_TYPE = 0
CLASSIFICATION_TYPE = U
NORAD_CAT_ID   = 13553
ELEMENT_SET_NO = 999
REV_AT_EPOCH   = 32355
BSTAR          = .66813E-4
MEAN_MOTION_DOT = .62E-5
MEAN_MOTION_DDOT = 0

CCSDS_OMM_VERS = 2.0
CREATION_DATE  = 
ORIGINATOR     = 

OBJECT_NAME    = SL-3 R/B
OBJECT_ID      = 1983-010B
CENTER_NAME    = EARTH
REF_FRAME      = TEME
TIME_SYSTEM    = UTC
MEAN_ELEMENT_THEORY = SGP/SGP4

EPOCH          = 2026-02-01T10:38:40.799328
MEAN_MOTION    = 15.45078060
ECCENTRICITY   = .0017356
INCLINATION    = 81.1012
RA_OF_ASC_NODE = 46.6457
ARG_OF_PERICENTER = 167.7187
MEAN_ANOMALY   = 192.4484

EPHEMERIS_TYPE = 0
CLASSIFICATION_TYPE = U
NORAD_CAT_ID   = 13819
ELEMENT_SET_NO = 999
REV_AT_EPOCH   = 35234
BSTAR          = .25858E-3
MEAN_MOTION_DOT = .12325E-3
MEAN_MOTION_DDOT = 0

CCSDS_OMM_VERS = 2.0
CREATION_DATE  = 
ORIGINATOR     = 

OBJECT_NAME    = SL-3 R/B
OBJECT_ID      = 1983-075B
CENTER_NAME    = EARTH
REF_FRAME      = TEME
TIME_SYSTEM    = UTC
MEAN_ELEMENT_THEORY = SGP/SGP4

EPOCH          = 2026-02-01T10:42:47.041920
MEAN_MOTION    = 15.37453325
ECCENTRICITY   = .0022226
INCLINATION    = 97.6117
RA_OF_ASC_NODE = 35.6850
ARG_OF_PERICENTER = 5.1333
MEAN_ANOMALY   = 355.0134

EPHEMERIS_TYPE = 0
CLASSIFICATION_TYPE = U
NORAD_CAT_ID   = 14208
ELEMENT_SET_NO = 999
REV_AT_EPOCH   = 32458
BSTAR          = .29734E-3
MEAN_MOTION_DOT = .10926E-3
MEAN_MOTION_DDOT = 0

CCSDS_OMM_VERS = 2.0
CREATION_DATE  = 
ORIGINATOR     = 

OBJECT_NAME    = COSMOS 1536
OBJECT_ID      = 1984-013A
CENTER_NAME    = EARTH
REF_FRAME      = TEME
TIME_SYSTEM    = UTC
MEAN_ELEMENT_THEORY = SGP/SGP4

EPOCH          = 2026-02-01T08:02:02.759424
MEAN_MOTION    = 15.23318427
ECCENTRICITY   = .0015419
INCLINATION    = 82.5476
RA_OF_ASC_NODE = 143.9645
ARG_OF_PERICENTER = 54.2721
MEAN_ANOMALY   = 305.9948

EPHEMERIS_TYPE = 0
CLASSIFICATION_TYPE = U
NORAD_CAT_ID   = 14699
ELEMENT_SET_NO = 999
REV_AT_EPOCH   = 26708
BSTAR          = .24024E-3
MEAN_MOTION_DOT = .5752E-4
MEAN_MOTION_DDOT = 0

CCSDS_OMM_VERS = 2.0
CREATION_DATE  = 
ORIGINATOR     = 

OBJECT_NAME    = SL-14 R/B
OBJECT_ID      = 1984-027B
CENTER_NAME    = EARTH
REF_FRAME      = TEME
TIME_SYSTEM    = UTC
MEAN_ELEMENT_THEORY = SGP/SGP4

EPOCH          = 2026-02-01T04:41:57.766272
MEAN_MOTION    = 14.85939326
ECCENTRICITY   = .0019529
INCLINATION    = 82.5412
RA_OF_ASC_NODE = 279.2457
ARG_OF_PERICENTER = 93.9233
MEAN_ANOMALY   = 266.4216

EPHEMERIS_TYPE = 0
CLASSIFICATION_TYPE = U
NORAD_CAT_ID   = 14820
ELEMENT_SET_NO = 999
REV_AT_EPOCH   = 24221
BSTAR          = .5597E-4
MEAN_MOTION_DOT = .514E-5
MEAN_MOTION_DDOT = 0

CCSDS_OMM_VERS = 2.0
CREATION_DATE  = 
ORIGINATOR     = 

OBJECT_NAME    = SL-8 R/B
OBJECT_ID      = 1985-006B
CENTER_NAME    = EARTH
REF_FRAME      = TEME
TIME_SYSTEM    = UTC
MEAN_ELEMENT_THEORY = SGP/SGP4

EPOCH          = 2026-02-01T06:40:36.360768
MEAN_MOTION    = 14.37763166
ECCENTRICITY   = .0019678
INCLINATION    = 74.0476
RA_OF_ASC_NODE = 328.1464
ARG_OF_PERICENTER = 252.6647
MEAN_ANOMALY   = 223.2475

EPHEMERIS_TYPE = 0
CLASSIFICATION_TYPE = U
NORAD_CAT_ID   = 15483
ELEMENT_SET_NO = 999
REV_AT_EPOCH   = 14879
BSTAR          = .10538E-3
MEAN_MOTION_DOT = .291E-5
MEAN_MOTION_DDOT = 0

CCSDS_OMM_VERS = 2.0
CREATION_DATE  = 
ORIGINATOR     = 

OBJECT_NAME    = SL-12 R/B(2)
OBJECT_ID      = 1985-042D
CENTER_NAME    = EARTH
REF_FRAME      = TEME
TIME_SYSTEM    = UTC
MEAN_ELEMENT_THEORY = SGP/SGP4

EPOCH          = 2026-02-01T11:11:21.512544
MEAN_MOTION    = 14.21971054
ECCENTRICITY   = .0035382
INCLINATION    = 71.1081
RA_OF_ASC_NODE = 164.2558
ARG_OF_PERICENTER = 185.7352
MEAN_ANOMALY   = 236.5914

EPHEMERIS_TYPE = 0
CLASSIFICATION_TYPE = U
NORAD_CAT_ID   = 15772
ELEMENT_SET_NO = 999
REV_AT_EPOCH   = 10924
BSTAR          = .9031E-4
MEAN_MOTION_DOT = .153E-5
MEAN_MOTION_DDOT = 0

CCSDS_OMM_VERS = 2.0
CREATION_DATE  = 
ORIGINATOR     = 

OBJECT_NAME    = SL-14 R/B
OBJECT_ID      = 1985-069B
CENTER_NAME    = EARTH
REF_FRAME      = TEME
TIME_SYSTEM    = UTC
MEAN_ELEMENT_THEORY = SGP/SGP4

EPOCH          = 2026-02-01T11:03:42.986016
MEAN_MOTION    = 14.86389052
ECCENTRICITY   = .0017656
INCLINATION    = 82.5240
RA_OF_ASC_NODE = 59.0088
ARG_OF_PERICENTER = 316.0538
MEAN_ANOMALY   = 43.9274

EPHEMERIS_TYPE = 0
CLASSIFICATION_TYPE = U
NORAD_CAT_ID   = 15945
ELEMENT_SET_NO = 999
REV_AT_EPOCH   = 16745
BSTAR          = .57229E-4
MEAN_MOTION_DOT = .53E-5
MEAN_MOTION_DDOT = 0

CCSDS_OMM_VERS = 2.0
CREATION_DATE  = 
ORIGINATOR     = 

OBJECT_NAME    = SL-16 R/B
OBJECT_ID      = 1985-097B
CENTER_NAME    = EARTH
REF_FRAME      = TEME
TIME_SYSTEM    = UTC
MEAN_ELEMENT_THEORY = SGP/SGP4

EPOCH          = 2026-02-01T06:57:20.633760
MEAN_MOTION    = 14.16594043
ECCENTRICITY   = .0009279
INCLINATION    = 71.0011
RA_OF_ASC_NODE = 217.1820
ARG_OF_PERICENTER = 302.5611
MEAN_ANOMALY   = 230.1164

EPHEMERIS_TYPE = 0
CLASSIFICATION_TYPE = U
NORAD_CAT_ID   = 16182
ELEMENT_SET_NO = 999
REV_AT_EPOCH   = 8207
BSTAR          = .15787E-3
MEAN_MOTION_DOT = .267E-5
MEAN_MOTION_DDOT = 0

CCSDS_OMM_VERS = 2.0
CREATION_DATE  = 
ORIGINATOR     = 

OBJECT_NAME    = SL-14 R/B
OBJECT_ID      = 1986-006B
CENTER_NAME    = EARTH
REF_FRAME      = TEME
TIME_SYSTEM    = UTC
MEAN_ELEMENT_THEORY = SGP/SGP4

EPOCH          = 2026-02-01T05:53:37.012128
MEAN_MOTION    = 14.86760653
ECCENTRICITY   = .0077579
INCLINATION    = 82.5278
RA_OF_ASC_NODE = 294.0370
ARG_OF_PERICENTER = 34.4922
MEAN_ANOMALY   = 326.1293

EPHEMERIS_TYPE = 0
CLASSIFICATION_TYPE = U
NORAD_CAT_ID   = 16496
ELEMENT_SET_NO = 999
REV_AT_EPOCH   = 14379
BSTAR          = .91008E-4
MEAN_MOTION_DOT = .883E-5
MEAN_MOTION_DDOT = 0

CCSDS_OMM_VERS = 2.0
CREATION_DATE  = 
ORIGINATOR     = 

OBJECT_NAME    = COSMOS 1743
OBJECT_ID      = 1986-034A
CENTER_NAME    = EARTH
REF_FRAME      = TEME
TIME_SYSTEM    = UTC
MEAN_ELEMENT_THEORY = SGP/SGP4

EPOCH          = 2026-02-01T06:29:41.388288
MEAN_MOTION    = 15.55884177
ECCENTRICITY   = .000537
INCLINATION    = 82.5346
RA_OF_ASC_NODE = 111.9709
ARG_OF_PERICENTER = 72.8455
MEAN_ANOMALY   = 287.3387

EPHEMERIS_TYPE = 0
CLASSIFICATION_TYPE = U
NORAD_CAT_ID   = 16719
ELEMENT_SET_NO = 999
REV_AT_EPOCH   = 17458
BSTAR          = .43378E-3
MEAN_MOTION_DOT = .30148E-3
MEAN_MOTION_DDOT = 0

