SL-3 R/B                
1 13403U 82079B   26032.43630719  .00005156  00000+0  20843-3 0  9999
2 13403  81.1437 235.8719 0024252 290.0273  69.8348 15.24275923372178
SL-14 R/B               
1 13553U 82092B   26032.50087568  .00000620  00000+0  66813-4 0  9995
2 13553  82.5694 175.2373 0021692  63.3705   4.8656 14.86622859323553
SL-3 R/B                
1 13819U 83010B   26032.44352777  .00012325  00000+0  25858-3 0  9999
2 13819  81.1012  46.6457 0017356 167.7187 192.4484 15.45078060352343
SL-3 R/B                
1 14208U 83075B   26032.44637780  .00010926  00000+0  29734-3 0  9995
2 14208  97.6117  35.6850 0022226   5.1333 355.0134 15.37453325324585
COSMOS 1536             
1 14699U 84013A   26032.33475416  .00005752  00000+0  24024-3 0  9994
2 14699  82.5476 143.9645 0015419  54.2721 305.9948 15.23318427267083
SL-14 R/B               
1 14820U 84027B   26032.19580748  .00000514  00000+0  55970-4 0  9990
2 14820  82.5412 279.2457 0019529  93.9233 266.4216 14.85939326242218
SL-8 R/B                
1 15483U 85006B   26032.27819862  .00000291  00000+0  10538-3 0  9997
2 15483  74.0476 328.1464 0019678 252.6647 223.2475 14.37763166148790
SL-12 R/B(2)            
1 15772U 85042D   26032.46622121  .00000153  00000+0  90310-4 0  9993
2 15772  71.1081 164.2558 0035382 185.7352 236.5914 14.21971054109245
SL-14 R/B               
1 15945U 85069B   26032.46091419  .00000530  00000+0  57229-4 0  9995
2 15945  82.5240  59.0088 0017656 316.0538  43.9274 14.86389052167456
SL-16 R/B               
1 16182U 85097B   26032.28982215  .00000267  00000+0  15787-3 0  9992
2 16182  71.0011 217.1820 0009279 302.5611 230.1164 14.16594043 82077
SL-14 R/B               
1 16496U 86006B   26032.24556727  .00000883  00000+0  91008-4 0  9997
2 16496  82.5278 294.0370 0077579  34.4922 326.1293 14.86760653143790
COSMOS 1743             
1 16719U 86034A   26032.27061792  .00030148  00000+0  43378-3 0  9995
2 16719  82.5346 111.9709 0005370  72.8455 287.3387 15.55884177174582
